CCSDS_OMM_VERS = 2.0
CREATION_DATE  = 
ORIGINATOR     = 

OBJECT_NAME    = ATLAS CENTAUR R/B
OBJECT_ID      = 1972-065B
CENTER_NAME    = EARTH
REF_FRAME      = TEME
TIME_SYSTEM    = UTC
MEAN_ELEMENT_THEORY = SGP/SGP4

EPOCH          = 2025-11-22T01:08:23.747712
MEAN_MOTION    = 14.77332049
ECCENTRICITY   = .0033893
INCLINATION    = 35.0007
RA_OF_ASC_NODE = 216.4032
ARG_OF_PERICENTER = 186.1218
MEAN_ANOMALY   = 173.9071

EPHEMERIS_TYPE = 0
CLASSIFICATION_TYPE = U
NORAD_CAT_ID   = 6155
ELEMENT_SET_NO = 999
REV_AT_EPOCH   = 82533
BSTAR          = .1837E-3
MEAN_MOTION_DOT = .1316E-4
MEAN_MOTION_DDOT = 0

CCSDS_OMM_VERS = 2.0
CREATION_DATE  = 
ORIGINATOR     = 

OBJECT_NAME    = SL-8 R/B
OBJECT_ID      = 1975-112B
CENTER_NAME    = EARTH
REF_FRAME      = TEME
TIME_SYSTEM    = UTC
MEAN_ELEMENT_THEORY = SGP/SGP4

EPOCH          = 2025-11-22T04:05:31.523136
MEAN_MOTION    = 14.38126819
ECCENTRICITY   = .0016108
INCLINATION    = 74.0605
RA_OF_ASC_NODE = 216.6901
ARG_OF_PERICENTER = 330.7270
MEAN_ANOMALY   = 29.2980

EPHEMERIS_TYPE = 0
CLASSIFICATION_TYPE = U
NORAD_CAT_ID   = 8459
ELEMENT_SET_NO = 999
REV_AT_EPOCH   = 61641
BSTAR          = .11795E-3
MEAN_MOTION_DOT = .332E-5
MEAN_MOTION_DDOT = 0

CCSDS_OMM_VERS = 2.0
CREATION_DATE  = 
ORIGINATOR     = 

OBJECT_NAME    = SL-3 R/B
OBJECT_ID      = 1977-057B
CENTER_NAME    = EARTH
REF_FRAME      = TEME
TIME_SYSTEM    = UTC
MEAN_ELEMENT_THEORY = SGP/SGP4

EPOCH          = 2025-11-22T09:18:03.168288
MEAN_MOTION    = 15.42288668
ECCENTRICITY   = .000688
INCLINATION    = 97.5681
RA_OF_ASC_NODE = 128.9346
ARG_OF_PERICENTER = 318.1487
MEAN_ANOMALY   = 41.9233

EPHEMERIS_TYPE = 0
CLASSIFICATION_TYPE = U
NORAD_CAT_ID   = 10114
ELEMENT_SET_NO = 999
REV_AT_EPOCH   = 65177
BSTAR          = .31946E-3
MEAN_MOTION_DOT = .13676E-3
MEAN_MOTION_DDOT = 0

CCSDS_OMM_VERS = 2.0
CREATION_DATE  = 
ORIGINATOR     = 

OBJECT_NAME    = SEASAT 1
OBJECT_ID      = 1978-064A
CENTER_NAME    = EARTH
REF_FRAME      = TEME
TIME_SYSTEM    = UTC
MEAN_ELEMENT_THEORY = SGP/SGP4

EPOCH          = 2025-11-22T08:15:23.192352
MEAN_MOTION    = 14.46028155
ECCENTRICITY   = .0002134
INCLINATION    = 108.0083
RA_OF_ASC_NODE = 260.2491
ARG_OF_PERICENTER = 252.1730
MEAN_ANOMALY   = 107.9183

EPHEMERIS_TYPE = 0
CLASSIFICATION_TYPE = U
NORAD_CAT_ID   = 10967
ELEMENT_SET_NO = 999
REV_AT_EPOCH   = 49099
BSTAR          = .17724E-3
MEAN_MOTION_DOT = .495E-5
MEAN_MOTION_DDOT = 0

CCSDS_OMM_VERS = 2.0
CREATION_DATE  = 
ORIGINATOR     = 

OBJECT_NAME    = SL-14 R/B
OBJECT_ID      = 1979-011B
CENTER_NAME    = EARTH
REF_FRAME      = TEME
TIME_SYSTEM    = UTC
MEAN_ELEMENT_THEORY = SGP/SGP4

EPOCH          = 2025-11-22T03:04:49.540224
MEAN_MOTION    = 14.91735090
ECCENTRICITY   = .0017499
INCLINATION    = 82.5252
RA_OF_ASC_NODE = 198.5898
ARG_OF_PERICENTER = 59.4618
MEAN_ANOMALY   = 300.8326

EPHEMERIS_TYPE = 0
CLASSIFICATION_TYPE = U
NORAD_CAT_ID   = 11267
ELEMENT_SET_NO = 999
REV_AT_EPOCH   = 51274
BSTAR          = .6592E-4
MEAN_MOTION_DOT = .691E-5
MEAN_MOTION_DDOT = 0

CCSDS_OMM_VERS = 2.0
CREATION_DATE  = 
ORIGINATOR     = 

OBJECT_NAME    = SL-8 R/B
OBJECT_ID      = 1979-089B
CENTER_NAME    = EARTH
REF_FRAME      = TEME
TIME_SYSTEM    = UTC
MEAN_ELEMENT_THEORY = SGP/SGP4

EPOCH          = 2025-11-22T08:58:47.023968
MEAN_MOTION    = 14.42263172
ECCENTRICITY   = .001471
INCLINATION    = 74.0681
RA_OF_ASC_NODE = 289.6714
ARG_OF_PERICENTER = 132.5402
MEAN_ANOMALY   = 227.6999

EPHEMERIS_TYPE = 0
CLASSIFICATION_TYPE = U
NORAD_CAT_ID   = 11574
ELEMENT_SET_NO = 999
REV_AT_EPOCH   = 42063
BSTAR          = .10579E-3
MEAN_MOTION_DOT = .323E-5
MEAN_MOTION_DDOT = 0

CCSDS_OMM_VERS = 2.0
CREATION_DATE  = 
ORIGINATOR     = 

OBJECT_NAME    = SL-14 R/B
OBJECT_ID      = 1980-005B
CENTER_NAME    = EARTH
REF_FRAME      = TEME
TIME_SYSTEM    = UTC
MEAN_ELEMENT_THEORY = SGP/SGP4

EPOCH          = 2025-11-22T08:08:30.812064
MEAN_MOTION    = 14.90755073
ECCENTRICITY   = .0016384
INCLINATION    = 82.5163
RA_OF_ASC_NODE = 49.0438
ARG_OF_PERICENTER = 156.6933
MEAN_ANOMALY   = 203.5032

EPHEMERIS_TYPE = 0
CLASSIFICATION_TYPE = U
NORAD_CAT_ID   = 11672
ELEMENT_SET_NO = 999
REV_AT_EPOCH   = 46049
BSTAR          = .80993E-4
MEAN_MOTION_DOT = .823E-5
MEAN_MOTION_DDOT = 0

CCSDS_OMM_VERS = 2.0
CREATION_DATE  = 
ORIGINATOR     = 

OBJECT_NAME    = SL-8 R/B
OBJECT_ID      = 1981-003B
CENTER_NAME    = EARTH
REF_FRAME      = TEME
TIME_SYSTEM    = UTC
MEAN_ELEMENT_THEORY = SGP/SGP4

EPOCH          = 2025-11-22T05:07:34.972608
MEAN_MOTION    = 15.06055045
ECCENTRICITY   = .0281921
INCLINATION    = 82.9321
RA_OF_ASC_NODE = 29.0826
ARG_OF_PERICENTER = 191.2607
MEAN_ANOMALY   = 168.2234

EPHEMERIS_TYPE = 0
CLASSIFICATION_TYPE = U
NORAD_CAT_ID   = 12139
ELEMENT_SET_NO = 999
REV_AT_EPOCH   = 29847
BSTAR          = .68549E-3
MEAN_MOTION_DOT = .25293E-3
MEAN_MOTION_DDOT = 0

CCSDS_OMM_VERS = 2.0
CREATION_DATE  = 
ORIGINATOR     = 

OBJECT_NAME    = SL-3 R/B
OBJECT_ID      = 1981-046B
CENTER_NAME    = EARTH
REF_FRAME      = TEME
TIME_SYSTEM    = UTC
MEAN_ELEMENT_THEORY = SGP/SGP4

EPOCH          = 2025-11-22T09:54:23.831712
MEAN_MOTION    = 15.39019704
ECCENTRICITY   = .0020271
INCLINATION    = 81.2345
RA_OF_ASC_NODE = 58.2406
ARG_OF_PERICENTER = 34.7753
MEAN_ANOMALY   = 325.4808

EPHEMERIS_TYPE = 0
CLASSIFICATION_TYPE = U
NORAD_CAT_ID   = 12465
ELEMENT_SET_NO = 999
REV_AT_EPOCH   = 42191
BSTAR          = .33088E-3
MEAN_MOTION_DOT = .12909E-3
MEAN_MOTION_DDOT = 0

CCSDS_OMM_VERS = 2.0
CREATION_DATE  = 
ORIGINATOR     = 

OBJECT_NAME    = SL-3 R/B
OBJECT_ID      = 1981-103B
CENTER_NAME    = EARTH
REF_FRAME      = TEME
TIME_SYSTEM    = UTC
MEAN_ELEMENT_THEORY = SGP/SGP4

EPOCH          = 2025-11-22T07:39:38.553408
MEAN_MOTION    = 15.19878361
ECCENTRICITY   = .0011506
INCLINATION    = 81.1587
RA_OF_ASC_NODE = 339.2653
ARG_OF_PERICENTER = 293.2763
MEAN_ANOMALY   = 66.7256

EPHEMERIS_TYPE = 0
CLASSIFICATION_TYPE = U
NORAD_CAT_ID   = 12904
ELEMENT_SET_NO = 999
REV_AT_EPOCH   = 95691
BSTAR          = .39495E-3
MEAN_MOTION_DOT = .8515E-4
MEAN_MOTION_DDOT = 0

CCSDS_OMM_VERS = 2.0
CREATION_DATE  = 
ORIGINATOR     = 

OBJECT_NAME    = SL-3 R/B
OBJECT_ID      = 1982-013B
CENTER_NAME    = EARTH
REF_FRAME      = TEME
TIME_SYSTEM    = UTC
MEAN_ELEMENT_THEORY = SGP/SGP4

EPOCH          = 2025-11-22T09:07:40.946592
MEAN_MOTION    = 15.20822924
ECCENTRICITY   = .0022804
INCLINATION    = 81.1739
RA_OF_ASC_NODE = 286.4357
ARG_OF_PERICENTER = 176.9657
MEAN_ANOMALY   = 183.1717

EPHEMERIS_TYPE = 0
CLASSIFICATION_TYPE = U
NORAD_CAT_ID   = 13068
ELEMENT_SET_NO = 999
REV_AT_EPOCH   = 38803
BSTAR          = .25737E-3
MEAN_MOTION_DOT = .5741E-4
MEAN_MOTION_DDOT = 0

CCSDS_OMM_VERS = 2.0
CREATION_DATE  = 
ORIGINATOR     = 

OBJECT_NAME    = SL-3 R/B
OBJECT_ID      = 1982-039B
CENTER_NAME    = EARTH
REF_FRAME      = TEME
TIME_SYSTEM    = UTC
MEAN_ELEMENT_THEORY = SGP/SGP4

EPOCH          = 2025-11-22T10:05:52.076832
MEAN_MOTION    = 15.09356754
ECCENTRICITY   = .0031354
INCLINATION    = 81.1757
RA_OF_ASC_NODE = 339.4660
ARG_OF_PERICENTER = 319.9937
MEAN_ANOMALY   = 39.8977

EPHEMERIS_TYPE = 0
CLASSIFICATION_TYPE = U
NORAD_CAT_ID   = 13154
ELEMENT_SET_NO = 999
REV_AT_EPOCH   = 36545
BSTAR          = .19194E-3
MEAN_MOTION_DOT = .3121E-4
MEAN_MOTION_DDOT = 0

