ATLAS CENTAUR R/B       
1 06155U 72065B   25326.04749708  .00001316  00000+0  18370-3 0  9996
2 06155  35.0007 216.4032 0033893 186.1218 173.9071 14.77332049825334
SL-8 R/B                
1 08459U 75112B   25326.17050374  .00000332  00000+0  11795-3 0  9990
2 08459  74.0605 216.6901 0016108 330.7270  29.2980 14.38126819616414
SL-3 R/B                
1 10114U 77057B   25326.38753667  .00013676  00000+0  31946-3 0  9994
2 10114  97.5681 128.9346 0006880 318.1487  41.9233 15.42288668651770
SEASAT 1                
1 10967U 78064A   25326.34401843  .00000495  00000+0  17724-3 0  9994
2 10967 108.0083 260.2491 0002134 252.1730 107.9183 14.46028155490995
SL-14 R/B               
1 11267U 79011B   25326.12835116  .00000691  00000+0  65920-4 0  9991
2 11267  82.5252 198.5898 0017499  59.4618 300.8326 14.91735090512744
SL-8 R/B                
1 11574U 79089B   25326.37415537  .00000323  00000+0  10579-3 0  9996
2 11574  74.0681 289.6714 0014710 132.5402 227.6999 14.42263172420634
SL-14 R/B               
1 11672U 80005B   25326.33924551  .00000823  00000+0  80993-4 0  9995
2 11672  82.5163  49.0438 0016384 156.6933 203.5032 14.90755073460496
SL-8 R/B                
1 12139U 81003B   25326.21359922  .00025293  00000+0  68549-3 0  9994
2 12139  82.9321  29.0826 0281921 191.2607 168.2234 15.06055045298476
SL-3 R/B                
1 12465U 81046B   25326.41277583  .00012909  00000+0  33088-3 0  9997
2 12465  81.2345  58.2406 0020271  34.7753 325.4808 15.39019704421915
SL-3 R/B                
1 12904U 81103B   25326.31919622  .00008515  00000+0  39495-3 0  9991
2 12904  81.1587 339.2653 0011506 293.2763  66.7256 15.19878361956915
SL-3 R/B                
1 13068U 82013B   25326.38033503  .00005741  00000+0  25737-3 0  9998
2 13068  81.1739 286.4357 0022804 176.9657 183.1717 15.20822924388036
SL-3 R/B                
1 13154U 82039B   25326.42074163  .00003121  00000+0  19194-3 0  9994
2 13154  81.1757 339.4660 0031354 319.9937  39.8977 15.09356754365454
